[{"OBJECT_NAME":"HORS 2","OBJECT_ID":"2023-091AG","EPOCH":"2026-03-09T22:11:34.810944","MEAN_MOTION":15.2928008,"ECCENTRICITY":0.00098173,"INCLINATION":97.5195,"RA_OF_ASC_NODE":134.7443,"ARG_OF_PERICENTER":79.3164,"MEAN_ANOMALY":280.9181,"EPHEMERIS_TYPE":0,"CLASSIFICATION_TYPE":"U","NORAD_CAT_ID":57196,"ELEMENT_SET_NO":999,"REV_AT_EPOCH":14934,"BSTAR":0.00059338338,"MEAN_MOTION_DOT":0.00016821,"MEAN_MOTION_DDOT":0},{"OBJECT_NAME":"STARLINK-31919","OBJECT_ID":"2024-098Y","EPOCH":"2026-03-09T22:30:22.344768","MEAN_MOTION":15.27587887,"ECCENTRICITY":0.00010278,"INCLINATION":43.0025,"RA_OF_ASC_NODE":276.6299,"ARG_OF_PERICENTER":276.9645,"MEAN_ANOMALY":83.109,"EPHEMERIS_TYPE":0,"CLASSIFICATION_TYPE":"U","NORAD_CAT_ID":59880,"ELEMENT_SET_NO":999,"REV_AT_EPOCH":10188,"BSTAR":0.00014297853,"MEAN_MOTION_DOT":3.675e-5,"MEAN_MOTION_DDOT":0}]
